GLOBALSTAR M024         
1 25883U 99043A   25363.24437068 -.00000086  00000+0 -74182-3 0  9994
2 25883  52.0036 300.5053 0002078  49.2874 100.8819 11.10165509136524
GLOBALSTAR M027         
1 25884U 99043B   25363.73123779 -.00000081  00000+0 -65125-3 0  9992
2 25884  52.0240  22.9273 0021153 306.7839  53.1013 11.04372734162841
GLOBALSTAR M054         
1 25885U 99043C   25363.62523649 -.00000065  00000+0  16595-3 0  9999
2 25885  52.0131 117.6624 0005695 147.1757 312.9407 11.39225023141321
GLOBALSTAR M053         
1 25886U 99043D   25363.51531794 -.00000071  00000+0 -54762-4 0  9995
2 25886  51.9996  75.8591 0003541  66.9499 305.7621 11.27668936141482
GLOBALSTAR M058         
1 25907U 99049A   25362.99094185 -.00000090  00000+0 -80961-4 0  9995
2 25907  51.9965 308.9945 0001745 301.1922  58.8742 11.93206076564793
GLOBALSTAR M050         
1 25908U 99049B   25363.17377600 -.00000031  00000+0  65074-3 0  9994
2 25908  52.0013 301.6148 0009690  59.3283  48.9933 12.07463054171742
GLOBALSTAR M033         
1 25909U 99049C   25363.70368229 -.00000077  00000+0  13659-3 0  9993
2 25909  51.9887 158.4870 0013243 309.2633  50.7039 12.20295524559619
GLOBALSTAR M055         
1 25910U 99049D   25363.62111948 -.00000053  00000+0  35291-3 0  9990
2 25910  51.9995 159.9488 0007342 168.1247 191.9779 12.29438771192320
